ZIYUAN 3 (ZY 3)         
1 38046U 12001A   18022.15601689  .00000576  00000-0  28947-4 0  9996
2 38046  97.5116  94.0623 0003227  56.5530  27.1917 15.21243211335240
RISAT-1                 
1 38248U 12017A   18022.14733316  .00000444  00000-0  31764-4 0  9994
2 38248  97.5733  32.0575 0005335  32.1362  54.6974 15.09399161316263
ARIRANG-3 (KOMPSAT-3)   
1 38338U 12025B   18021.52005130  .00000038  00000-0  17075-4 0  9998
2 38338  98.1610 321.4924 0010745  15.0073 345.1434 14.61623150303076
KANOPUS-V 1             
1 38707U 12039A   18022.13924788 -.00020976  00000-0 -96913-3 0  9992
2 38707  97.4546 302.5854 0001656  95.4538  17.8062 15.20183629305325
EXACTVIEW-1 (ADS-1B)    
1 38709U 12039C   18021.79649369 -.00000017  00000-0  13501-4 0  9990
2 38709  99.1221  11.1665 0010966 352.5449   7.5565 14.23963705285943
SPOT 6                  
1 38755U 12047A   18022.13025794 -.00000003  00000-0  91417-5 0  9997
2 38755  98.1943  91.8036 0001546  92.3252 267.8131 14.58559130285857
PLEIADES 1B             
1 39019U 12068A   18021.46216686 -.00000021  00000-0  53873-5 0  9995
2 39019  98.1812  98.5850 0001597  79.6486 280.4896 14.58558223273530
GOKTURK 2               
1 39030U 12073A   18022.17492179  .00000059  00000-0  16877-4 0  9998
2 39030  97.9722 276.1680 0002960  81.8049 278.3498 14.72693435272781
LANDSAT 8               
1 39084U 13008A   18021.32142590  .00000076  00000-0  26855-4 0  9997
2 39084  98.1995  93.7203 0001269  99.8005 260.3337 14.57122141262822
SARAL                   
1 39086U 13009A   18022.15098397 -.00000030  00000-0  51985-5 0  9991
2 39086  98.5373 211.3217 0000996  27.7128 332.4109 14.32006478256449
GAOFEN 1                
1 39150U 13018A   18021.53207148  .00000025  00000-0  10965-4 0  9995
2 39150  97.9383 106.7761 0020569  73.1373 287.2091 14.76514101255464
VNREDSAT 1              
1 39160U 13021B   18022.12358992  .00000055  00000-0  19760-4 0  9995
2 39160  98.0616  98.1857 0001367  77.9827 282.1532 14.62975439251614
ARIRANG-5 (KOMPSAT-5)   
1 39227U 13042A   18022.15689947  .00001251  00000-0  93606-4 0  9992
2 39227  97.6060 208.8086 0001751  77.3823  58.1171 15.04528214242619
YAOGAN 18               
1 39363U 13059A   18022.17367701  .00000797  00000-0  42470-4 0  9991
2 39363  97.3663  90.2771 0002423  93.0000 351.5038 15.17955146234546
SKYSAT-1                
1 39418U 13066C   18022.09486681  .00000055  00000-0  95862-5 0  9991
2 39418  97.6863 107.3378 0020988 269.5431  90.3395 14.98605291227861
DUBAISAT-2              
1 39419U 13066D   18022.17970247  .00000171  00000-0  21415-4 0  9998
2 39419  97.6563  94.6099 0012178 258.0586 101.9235 14.93783727227197
GPM-CORE                
1 39574U 14009C   18021.57559332  .00002786  00000-0  44915-4 0  9993
2 39574  65.0072 257.2043 0010562 282.6283  77.3682 15.55427082221487
SENTINEL-1A             
1 39634U 14016A   18022.00161223 -.00000062  00000-0 -35412-5 0  9995
2 39634  98.1810  31.5100 0001424  81.2786 278.8582 14.59199067202608
KAZEOSAT 1              
1 39731U 14024A   18021.50489267 -.00000001  00000-0  12878-4 0  9999
2 39731  98.4015 102.4461 0001425  89.4831 270.6523 14.42016439196358
ALOS-2                  
1 39766U 14029A   18022.17780429  .00000054  00000-0  14141-4 0  9992
2 39766  97.9207 121.3686 0001670  82.3437 277.7984 14.79470975197986
KAZEOSAT 2              
1 40010U 14033A   18022.14162936  .00000076  00000-0  16219-4 0  9997
2 40010  97.8803 285.6098 0015174 286.5111  73.4447 14.82095116194372
HODOYOSHI-4             
1 40011U 14033B   18022.13946513  .00000130  00000-0  23535-4 0  9998
2 40011  97.8681 281.4712 0025351 280.5744  79.2626 14.80965092194165
DEIMOS-2                
1 40013U 14033D   18022.18648722 -.00000160  00000-0 -12513-4 0  9995
2 40013  97.8728 288.6973 0001806  44.2938 315.8443 14.84882389194703
HODOYOSHI-3             
1 40015U 14033F   18021.73940135  .00000085  00000-0  18790-4 0  9997
2 40015  97.8521 274.7709 0035761 289.8096  69.9261 14.78339382193761
SPOT 7                  
1 40053U 14034A   18022.16415063 -.00000006  00000-0  84806-5 0  9991
2 40053  98.2076  91.7432 0001250  90.2330 269.9017 14.58553396189794
SKYSAT-2                
1 40072U 14037D   18021.96368954  .00000042  00000-0  12815-4 0  9997
2 40072  98.3554 147.0238 0007564  67.8560 292.3451 14.81058511191368
WORLDVIEW-3 (WV-3)      
1 40115U 14048A   18021.32107359  .00000029  00000-0  96774-5 0  9999
2 40115  97.8551 103.6767 0001088  41.0701 319.0599 14.84920585186476
YAOGAN 21               
1 40143U 14053A   18022.24541353  .00000809  00000-0  35396-4 0  9992
2 40143  97.2890  94.8498 0013367 134.8938 302.3033 15.24785168187789
YAOGAN 22               
1 40275U 14063A   18022.19921353 -.00000044  00000-0  00000+0 0  9996
2 40275 100.4269 136.9451 0005396 293.7152  66.3400 13.15325207156430
ASNARO                  
1 40298U 14070A   18022.16539215  .00000792  00000-0  40431-4 0  9994
2 40298  97.4785 106.1350 0002191  91.8672 355.4385 15.19582129178111
HODOYOSHI-1             
1 40299U 14070B   18022.18405825  .00000532  00000-0  25788-4 0  9996
2 40299  97.3897 106.4893 0014640  49.0614  35.2605 15.22698754178263
CHUBUSAT-1              
1 40300U 14070C   18022.20465703  .00000590  00000-0  29272-4 0  9999
2 40300  97.3782 102.9476 0022060  57.0339 328.5612 15.21351467178087
QSAT-EOS                
1 40301U 14070D   18022.14580913  .00001292  00000-0  55320-4 0  9997
2 40301  97.3725 103.6257 0028505  49.4449  37.6849 15.24257893178178
TSUBAME                 
1 40302U 14070E   18022.19386771  .00000727  00000-0  39519-4 0  9993
2 40302  97.3533  93.0174 0041265  80.4219   4.4902 15.16881517177543
YAOGAN 23               
1 40305U 14071A   18022.21732699  .00000756  00000-0  40481-4 0  9996
2 40305  97.4477 321.3815 0001282 107.6547  29.3654 15.17974119176657
YAOGAN 24               
1 40310U 14072A   18022.01168953  .00000035  00000-0  12259-4 0  9999
2 40310  98.0243 145.8570 0018720  85.9948 274.3388 14.77181243171021
CBERS 4                 
1 40336U 14079A   18022.21892090 -.00000016  00000-0  93690-5 0  9991
2 40336  98.4317  97.2728 0001813 100.4457 259.6938 14.35474813163832
RESURS P2               
1 40360U 14087A   18022.22911501  .00000610  00000-0  21878-4 0  9994
2 40360  97.2726 117.0901 0011594  85.9699 358.0193 15.32388404171920
YAOGAN 26               
1 40362U 14088A   18022.23118444  .00000958  00000-0  39509-4 0  9998
2 40362  97.3370 102.5633 0004046 229.0621 202.8742 15.26453396171178
SMAP                    
1 40376U 15003A   18022.05512484  .00000046  00000-0  18033-4 0  9990
2 40376  98.1220  31.5301 0000699 103.8306 256.2982 14.63365161158905
KOMPSAT-3A              
1 40536U 15014A   18022.18039882  .00000422  00000-0  28159-4 0  9998
2 40536  97.5044 322.8107 0008381 313.0938 157.6770 15.12199700156144
SENTINEL-2A             
1 40697U 15028A   18022.06058986 -.00000013  00000-0  11622-4 0  9998
2 40697  98.5725  98.8517 0001447  83.0386 277.0940 14.30814238134995
CARBONITE 1 (CBNT-1)    
1 40718U 15032D   18021.51787164  .00000030  00000-0  12066-4 0  9994
2 40718  97.9464 274.7001 0017370 152.0331 208.1813 14.74577835136425
YAOGAN 27               
1 40878U 15040A   18022.18383702 -.00000044  00000-0  00000+0 0  9990
2 40878 100.3664  83.8044 0009051  74.2326 285.9792 13.15958039115626
LAPAN-A2                
1 40931U 15052B   18020.74286720  .00000698  00000-0  81002-5 0  9996
2 40931   6.0032 121.5318 0013573  80.7308 279.4333 14.76562284125178
YAOGAN 28               
1 41026U 15064A   18021.55009802  .00000984  00000-0  36212-4 0  9999
2 41026  97.3403 151.5173 0009289 268.1254 222.4872 15.30202790123147
YAOGAN 29               
1 41038U 15069A   18022.18598960  .00000032  00000-0  10903-4 0  9998
2 41038  97.9223   6.3160 0001093  98.8225 261.3113 14.80431535116484
KENT RIDGE 1            
1 41167U 15077B   18022.14423836  .00000921  00000-0  16366-4 0  9991
2 41167  14.9768  28.0603 0010935 134.5640 128.2644 15.08840441116051
TELEOS 1                
1 41169U 15077D   18022.13955241  .00001047  00000-0  23307-4 0  9995
2 41169  14.9763  24.1410 0010232 138.2820 296.4279 15.09725850116095
JASON-3                 
1 41240U 16002A   18021.54496311 -.00000067  00000-0 -27214-4 0  9990
2 41240  66.0418  28.6113 0008143 271.5369  88.4713 12.80929869 94118
SENTINEL-3A             
1 41335U 16011A   18022.17470229 -.00000012  00000-0  13066-4 0  9994
2 41335  98.6276  91.4794 0001030 108.2583 251.8709 14.26735991100584
SENTINEL-1B             
1 41456U 16025A   18022.17255532 -.00000065  00000-0 -41132-5 0  9996
2 41456  98.1810  31.5039 0001439  78.0323 282.1042 14.59199145 92794
ZIYUAN 3-2 (ZY 3-2)     
1 41556U 16033A   18021.89247140  .00000547  00000-0  27527-4 0  9994
2 41556  97.4445 101.5109 0001898 101.5180  31.2295 15.21291195 91496
NUSAT-1 (FRESCO)        
1 41557U 16033B   18021.81564048  .00001332  00000-0  51570-4 0  9994
2 41557  97.4471 106.2622 0012786 320.3617  39.6687 15.27929753 91808
NUSAT-2 (BATATA)        
1 41558U 16033C   18022.20031290  .00001351  00000-0  52537-4 0  9992
2 41558  97.4498 106.7241 0012190 317.8174  42.2126 15.27763020 91854
CARTOSAT-2C             
1 41599U 16040A   18021.87224611  .00000336  00000-0  19134-4 0  9996
2 41599  97.4310  85.5496 0015053  39.0120  48.8163 15.19281892 87854
SKYSAT-C1               
1 41601U 16040C   18022.22047720  .00000499  00000-0  24598-4 0  9994
2 41601  97.5877  94.9841 0002162  77.7794   7.1331 15.22588325 88062
LAPAN-A3                
1 41603U 16040E   18022.21264039  .00000206  00000-0  12917-4 0  9997
2 41603  97.4326  86.2234 0014692  36.4967  47.4241 15.19501075 87910
BIROS                   
1 41604U 16040F   18022.19970013  .00000477  00000-0  24466-4 0  9993
2 41604  97.4343  87.1575 0013235  28.8380 331.3585 15.21200061 87970
